GSAT0101 (PRN E11)      
1 37846U 11060A   21255.79603476 -.00000070  00000-0  00000-0 0  9991
2 37846  56.8827  28.8993 0001540  63.2154 296.8017  1.70475001 61483
GSAT0102 (PRN E12)      
1 37847U 11060B   21256.32165834 -.00000072  00000-0  00000-0 0  9995
2 37847  56.8839  28.8845 0001363 328.1212  40.8425  1.70475257 61500
GSAT0103 (PRN E19)      
1 38857U 12055A   21255.25048133  .00000002  00000-0  00000+0 0  9996
2 38857  55.0618 149.3512 0002505 267.1636  92.8787  1.70473699 55508
GSAT0104 (PRN E20)      
1 38858U 12055B   21255.80764041 -.00000003  00000-0  00000-0 0  9994
2 38858  55.0615 149.3372 0000082 286.1810  73.8863  1.70474036 55378
GSAT0201 (PRN E18)      
1 40128U 14050A   21256.16329037 -.00000097  00000-0  00000-0 0  9999
2 40128  50.4364 343.3307 1642413 114.4377 263.5516  1.85518831 46075
GSAT0202 (PRN E14)      
1 40129U 14050B   21255.34732249 -.00000093  00000-0  00000-0 0  9998
2 40129  50.4662 342.4158 1639583 115.2176 262.6567  1.85519496 48224
GSAT0203 (PRN E26)      
1 40544U 15017A   21254.99126324 -.00000067  00000-0  00000-0 0  9995
2 40544  56.6773  28.9927 0003052 215.4857 144.4954  1.70474812 39559
GSAT0204 (PRN E22)      
1 40545U 15017B   21256.41708095 -.00000072  00000-0  00000-0 0  9992
2 40545  56.6835  28.9648 0003467 198.6011 161.3876  1.70475588  2623
GSAT0205 (PRN E24)      
1 40889U 15045A   21256.18466824  .00000037  00000-0  00000-0 0  9999
2 40889  55.8146 269.6189 0003817 338.9330  21.0815  1.70475077 37385
GSAT0206 (PRN E30)      
1 40890U 15045B   21255.23097664  .00000037  00000-0  00000-0 0  9998
2 40890  55.8137 269.6416 0003050 309.7593  50.2428  1.70475051 37393
GSAT0209 (PRN E09)      
1 41174U 15079A   21255.99323322 -.00000004  00000-0  00000-0 0  9992
2 41174  55.0778 149.0320 0003574 327.0451  33.0005  1.70472714 35148
GSAT0208 (PRN E08)      
1 41175U 15079B   21254.45315190  .00000009  00000-0  00000-0 0  9991
2 41175  55.0754 149.0733 0002916 331.6944  28.3646  1.70472686 35537
GSAT0211 (PRN E02)      
1 41549U 16030A   21255.15960708  .00000037  00000-0  00000-0 0  9994
2 41549  55.9579 269.5470 0004891 298.6919  61.2878  1.70474792 33025
GSAT0210 (PRN E01)      
1 41550U 16030B   21256.03893168  .00000038  00000-0  00000-0 0  9990
2 41550  55.9576 269.5242 0004955 274.1205  85.8527  1.70474835 33031
GSAT0207 (PRN E07)      
1 41859U 16069A   21255.11261838  .00000003  00000-0  00000-0 0  9997
2 41859  54.7366 149.3066 0003385 310.0041  50.0377  1.70472790 29759
GSAT0212 (PRN E03)      
1 41860U 16069B   21255.55263173 -.00000001  00000-0  00000-0 0  9990
2 41860  54.7345 149.2921 0002801 345.8055  14.2560  1.70472633 30013
GSAT0213 (PRN E04)      
1 41861U 16069C   21255.91819987 -.00000004  00000-0  00000-0 0  9994
2 41861  54.7370 149.2868 0002598 280.1367  79.9016  1.70472809 29884
GSAT0214 (PRN E05)      
1 41862U 16069D   21254.89211831  .00000005  00000-0  00000-0 0  9995
2 41862  54.7349 149.3102 0001879 292.2138  67.8387  1.70472692 29993
GSAT0215 (PRN E21)      
1 43055U 17079A   21255.96900257  .00000038  00000-0  00000-0 0  9995
2 43055  55.9333 269.3613 0004372 269.4950  90.4844  1.70473967 23354
GSAT0216 (PRN E25)      
1 43056U 17079B   21256.26143392  .00000038  00000-0  00000-0 0  9999
2 43056  55.9335 269.3530 0006141 272.5057  87.4540  1.70474101 23376
GSAT0217 (PRN E27)      
1 43057U 17079C   21255.30841827  .00000037  00000-0  00000-0 0  9991
2 43057  55.9314 269.3795 0005615 282.0053  77.9604  1.70474088 23340
GSAT0218 (PRN E31)      
1 43058U 17079D   21256.11502777  .00000038  00000-0  00000-0 0  9991
2 43058  55.9319 269.3545 0006598 269.7139  90.2402  1.70474040 23383
GSAT0221 (PRN E15)      
1 43564U 18060A   21255.42710660 -.00000068  00000-0  00000-0 0  9993
2 43564  57.0610  28.7252 0002779 245.1357 114.8368  1.70475906 19528
GSAT0222 (PRN E33)      
1 43565U 18060B   21256.23353164 -.00000071  00000-0  00000-0 0  9990
2 43565  57.0639  28.7032 0002196 253.1101 106.8671  1.70475905 19588
GSAT0219 (PRN E36)      
1 43566U 18060C   21256.45410662 -.00000072  00000-0  00000-0 0  9993
2 43566  57.0647  28.6992 0001892 249.0602 110.9206  1.70475917 19565
GSAT0220 (PRN E13)      
1 43567U 18060D   21255.50084072 -.00000068  00000-0  00000-0 0  9996
2 43567  57.0647  28.7256 0002176 242.7866 117.1926  1.70475525 19538
